{"type": "FeatureCollection", "features": [ {"type": "Feature", "properties": {"norad_id": 42738, "name": "QZS-2 (QZSS/PRN 194)", "group": "gnss", "lat": 2.2635662303941206, "lon": 63.19258154596594, "alt_km": 35709.247549301916, "timestamp": "2025-12-11T13:55:02.407600+00:00", "meta": {"OBJECT_NAME": "QZS-2 (QZSS/PRN 194)", "OBJECT_ID": "2017-028A", "EPOCH": "2025-12-10T14:10:29.974080", "MEAN_MOTION": 1.00283617, "ECCENTRICITY": 0.07578719, "INCLINATION": 39.7178, "RA_OF_ASC_NODE": 245.915, "ARG_OF_PERICENTER": 269.4546, "MEAN_ANOMALY": 278.5596, "EPHEMERIS_TYPE": 0, "CLASSIFICATION_TYPE": "U", "NORAD_CAT_ID": 42738, "ELEMENT_SET_NO": 999, "REV_AT_EPOCH": 573, "BSTAR": 0, "MEAN_MOTION_DOT": -1.97e-06, "MEAN_MOTION_DDOT": 0}, "tle": {"line1": "1 42738U 17028A   25344.59062470 -.00000197  00000+0  00000+0 0  9999", "line2": "2 42738  39.7178 245.9150 0757871 269.4546 278.5596  1.00283617  5733"}}, "geometry": {"type": "Point", "coordinates": [63.19258154596594, 2.2635662303941206]}}, {"type": "Feature", "properties": {"norad_id": 42917, "name": "QZS-3 (QZSS/PRN 199)", "group": "gnss", "lat": -0.013116780162565869, "lon": 56.366628264198546, "alt_km": 35793.45975112174, "timestamp": "2025-12-11T13:55:02.407615+00:00", "meta": {"OBJECT_NAME": "QZS-3 (QZSS/PRN 199)", "OBJECT_ID": "2017-048A", "EPOCH": "2025-12-11T05:33:22.990176", "MEAN_MOTION": 1.00272706, "ECCENTRICITY": 0.00020726, "INCLINATION": 0.0614, "RA_OF_ASC_NODE": 199.6875, "ARG_OF_PERICENTER": 66.9167, "MEAN_ANOMALY": 23.996, "EPHEMERIS_TYPE": 0, "CLASSIFICATION_TYPE": "U", "NORAD_CAT_ID": 42917, "ELEMENT_SET_NO": 999, "REV_AT_EPOCH": 3037, "BSTAR": 0, "MEAN_MOTION_DOT": -3.42e-06, "MEAN_MOTION_DDOT": 0}, "tle": {"line1": "1 42917U 17048A   25345.23151609 -.00000342  00000+0  00000+0 0  9997", "line2": "2 42917   0.0614 199.6875 0002072  66.9167  23.9960  1.00272706 30374"}}, "geometry": {"type": "Point", "coordinates": [56.366628264198546, -0.013116780162565869]}}, {"type": "Feature", "properties": {"norad_id": 42939, "name": "COSMOS 2522 (752)", "group": "gnss", "lat": 48.92240185313391, "lon": -15.645381559036792, "alt_km": 19127.91472925785, "timestamp": "2025-12-11T13:55:02.407636+00:00", "meta": {"OBJECT_NAME": "COSMOS 2522 (752)", "OBJECT_ID": "2017-055A", "EPOCH": "2025-12-10T22:48:11.952576", "MEAN_MOTION": 2.13101821, "ECCENTRICITY": 0.00065249, "INCLINATION": 64.076, "RA_OF_ASC_NODE": 198.29, "ARG_OF_PERICENTER": 225.5352, "MEAN_ANOMALY": 134.4806, "EPHEMERIS_TYPE": 0, "CLASSIFICATION_TYPE": "U", "NORAD_CAT_ID": 42939, "ELEMENT_SET_NO": 999, "REV_AT_EPOCH": 6396, "BSTAR": 0, "MEAN_MOTION_DOT": 5.1e-07, "MEAN_MOTION_DDOT": 0}, "tle": {"line1": "1 42939U 17055A   25344.95013834  .00000051  00000+0  00000+0 0  9990", "line2": "2 42939  64.0760 198.2900 0006524 225.5352 134.4806  2.13101821 63961"}}, "geometry": {"type": "Point", "coordinates": [-15.645381559036792, 48.92240185313391]}}, {"type": "Feature", "properties": {"norad_id": 42965, "name": "QZS-4 (QZSS/PRN 195)", "group": "gnss", "lat": 39.682327884582854, "lon": 64.82336557862618, "alt_km": 38914.92247404205, "timestamp": "2025-12-11T13:55:02.407655+00:00", "meta": {"OBJECT_NAME": "QZS-4 (QZSS/PRN 195)", "OBJECT_ID": "2017-062A", "EPOCH": "2025-12-10T21:00:10.699776", "MEAN_MOTION": 1.00253232, "ECCENTRICITY": 0.0752089, "INCLINATION": 40.2267, "RA_OF_ASC_NODE": 345.8936, "ARG_OF_PERICENTER": 271.5128, "MEAN_ANOMALY": 274.0366, "EPHEMERIS_TYPE": 0, "CLASSIFICATION_TYPE": "U", "NORAD_CAT_ID": 42965, "ELEMENT_SET_NO": 999, "REV_AT_EPOCH": 2991, "BSTAR": 0, "MEAN_MOTION_DOT": -3.59e-06, "MEAN_MOTION_DDOT": 0}, "tle": {"line1": "1 42965U 17062A   25344.87512384 -.00000359  00000+0  00000+0 0  9994", "line2": "2 42965  40.2267 345.8936 0752089 271.5128 274.0366  1.00253232 29911"}}, "geometry": {"type": "Point", "coordinates": [64.82336557862618, 39.682327884582854]}}, {"type": "Feature", "properties": {"norad_id": 43001, "name": "BEIDOU-3 M1 (C19)", "group": "gnss", "lat": -53.847015255543184, "lon": -45.981321561443515, "alt_km": 21517.132388045964, "timestamp": "2025-12-11T13:55:02.407667+00:00", "meta": {"OBJECT_NAME": "BEIDOU-3 M1 (C19)", "OBJECT_ID": "2017-069A", "EPOCH": "2025-12-10T02:59:44.237184", "MEAN_MOTION": 1.86231011, "ECCENTRICITY": 0.0009053, "INCLINATION": 56.5252, "RA_OF_ASC_NODE": 69.32, "ARG_OF_PERICENTER": 303.7778, "MEAN_ANOMALY": 56.1585, "EPHEMERIS_TYPE": 0, "CLASSIFICATION_TYPE": "U", "NORAD_CAT_ID": 43001, "ELEMENT_SET_NO": 999, "REV_AT_EPOCH": 5508, "BSTAR": 0, "MEAN_MOTION_DOT": -5.2e-07, "MEAN_MOTION_DDOT": 0}, "tle": {"line1": "1 43001U 17069A   25344.12481756 -.00000052  00000+0  00000+0 0  9999", "line2": "2 43001  56.5252  69.3200 0009053 303.7778  56.1585  1.86231011 55088"}}, "geometry": {"type": "Point", "coordinates": [-45.981321561443515, -53.847015255543184]}}, {"type": "Feature", "properties": {"norad_id": 43002, "name": "BEIDOU-3 M2 (C20)", "group": "gnss", "lat": -48.12670708171865, "lon": 21.827004715652624, "alt_km": 21519.406048464163, "timestamp": "2025-12-11T13:55:02.407678+00:00", "meta": {"OBJECT_NAME": "BEIDOU-3 M2 (C20)", "OBJECT_ID": "2017-069B", "EPOCH": "2025-12-09T12:37:45.819264", "MEAN_MOTION": 1.8623055, "ECCENTRICITY": 0.0006254, "INCLINATION": 56.5238, "RA_OF_ASC_NODE": 69.3764, "ARG_OF_PERICENTER": 332.6094, "MEAN_ANOMALY": 27.38, "EPHEMERIS_TYPE": 0, "CLASSIFICATION_TYPE": "U", "NORAD_CAT_ID": 43002, "ELEMENT_SET_NO": 999, "REV_AT_EPOCH": 5506, "BSTAR": 0, "MEAN_MOTION_DOT": -4.8e-07, "MEAN_MOTION_DDOT": 0}, "tle": {"line1": "1 43002U 17069B   25343.52622476 -.00000048  00000+0  00000+0 0  9994", "line2": "2 43002  56.5238  69.3764 0006254 332.6094  27.3800  1.86230550 55065"}}, "geometry": {"type": "Point", "coordinates": [21.827004715652624, -48.12670708171865]}}, {"type": "Feature", "properties": {"norad_id": 43055, "name": "GSAT0215 (GALILEO 19)", "group": "gnss", "lat": 11.473633096735373, "lon": 38.54873593327931, "alt_km": 23224.749681604237, "timestamp": "2025-12-11T13:55:02.407695+00:00", "meta": {"OBJECT_NAME": "GSAT0215 (GALILEO 19)", "OBJECT_ID": "2017-079A", "EPOCH": "2025-12-09T13:11:41.418816", "MEAN_MOTION": 1.70473866, "ECCENTRICITY": 0.00012854, "INCLINATION": 55.1311, "RA_OF_ASC_NODE": 226.7257, "ARG_OF_PERICENTER": 343.8684, "MEAN_ANOMALY": 16.2123, "EPHEMERIS_TYPE": 0, "CLASSIFICATION_TYPE": "U", "NORAD_CAT_ID": 43055, "ELEMENT_SET_NO": 999, "REV_AT_EPOCH": 4975, "BSTAR": 0, "MEAN_MOTION_DOT": 1.1e-07, "MEAN_MOTION_DDOT": 0}, "tle": {"line1": "1 43055U 17079A   25343.54978494  .00000011  00000+0  00000+0 0  9998", "line2": "2 43055  55.1311 226.7257 0001285 343.8684  16.2123  1.70473866 49750"}}, "geometry": {"type": "Point", "coordinates": [38.54873593327931, 11.473633096735373]}}, {"type": "Feature", "properties": {"norad_id": 43056, "name": "GSAT0216 (GALILEO 20)", "group": "gnss", "lat": -10.508881054465087, "lon": -140.74736804339625, "alt_km": 23217.261622325394, "timestamp": "2025-12-11T13:55:02.407707+00:00", "meta": {"OBJECT_NAME": "GSAT0216 (GALILEO 20)", "OBJECT_ID": "2017-079B", "EPOCH": "2025-12-10T10:15:48.535776", "MEAN_MOTION": 1.70473969, "ECCENTRICITY": 0.000248, "INCLINATION": 55.1311, "RA_OF_ASC_NODE": 226.7014, "ARG_OF_PERICENTER": 319.9818, "MEAN_ANOMALY": 40.0811, "EPHEMERIS_TYPE": 0, "CLASSIFICATION_TYPE": "U", "NORAD_CAT_ID": 43056, "ELEMENT_SET_NO": 999, "REV_AT_EPOCH": 4978, "BSTAR": 0, "MEAN_MOTION_DOT": 9e-08, "MEAN_MOTION_DDOT": 0}, "tle": {"line1": "1 43056U 17079B   25344.42764509  .00000009  00000+0  00000+0 0  9994", "line2": "2 43056  55.1311 226.7014 0002480 319.9818  40.0811  1.70473969 49789"}}, "geometry": {"type": "Point", "coordinates": [-140.74736804339625, -10.508881054465087]}}, {"type": "Feature", "properties": {"norad_id": 43057, "name": "GSAT0217 (GALILEO 21)", "group": "gnss", "lat": -25.55459584523264, "lon": 66.13364731327492, "alt_km": 23231.103842268356, "timestamp": "2025-12-11T13:55:02.407718+00:00", "meta": {"OBJECT_NAME": "GSAT0217 (GALILEO 21)", "OBJECT_ID": "2017-079C", "EPOCH": "2025-12-10T01:28:57.302112", "MEAN_MOTION": 1.704739, "ECCENTRICITY": 0.00027944, "INCLINATION": 55.1293, "RA_OF_ASC_NODE": 226.7095, "ARG_OF_PERICENTER": 343.7549, "MEAN_ANOMALY": 16.3188, "EPHEMERIS_TYPE": 0, "CLASSIFICATION_TYPE": "U", "NORAD_CAT_ID": 43057, "ELEMENT_SET_NO": 999, "REV_AT_EPOCH": 4976, "BSTAR": 0, "MEAN_MOTION_DOT": 9e-08, "MEAN_MOTION_DDOT": 0}, "tle": {"line1": "1 43057U 17079C   25344.06177433  .00000009  00000+0  00000+0 0  9999", "line2": "2 43057  55.1293 226.7095 0002794 343.7549  16.3188  1.70473900 49768"}}, "geometry": {"type": "Point", "coordinates": [66.13364731327492, -25.55459584523264]}}, {"type": "Feature", "properties": {"norad_id": 43058, "name": "GSAT0218 (GALILEO 22)", "group": "gnss", "lat": 52.97966883437391, "lon": -65.83166901199868, "alt_km": 23221.375003313216, "timestamp": "2025-12-11T13:55:02.407730+00:00", "meta": {"OBJECT_NAME": "GSAT0218 (GALILEO 22)", "OBJECT_ID": "2017-079D", "EPOCH": "2025-12-09T02:36:28.325952", "MEAN_MOTION": 1.70473942, "ECCENTRICITY": 0.00028125, "INCLINATION": 55.1298, "RA_OF_ASC_NODE": 226.7335, "ARG_OF_PERICENTER": 306.3632, "MEAN_ANOMALY": 53.6978, "EPHEMERIS_TYPE": 0, "CLASSIFICATION_TYPE": "U", "NORAD_CAT_ID": 43058, "ELEMENT_SET_NO": 999, "REV_AT_EPOCH": 4977, "BSTAR": 0, "MEAN_MOTION_DOT": 1.2e-07, "MEAN_MOTION_DDOT": 0}, "tle": {"line1": "1 43058U 17079D   25343.10866118  .00000012  00000+0  00000+0 0  9993", "line2": "2 43058  55.1298 226.7335 0002812 306.3632  53.6978  1.70473942 49778"}}, "geometry": {"type": "Point", "coordinates": [-65.83166901199868, 52.97966883437391]}}]}